STARLINK-32124          
1 60298U 24132W   26068.27409548  .00000212  00000+0  19274-4 0  9999
2 60298  53.1609  54.5825 0001190 101.6551 258.4584 15.30183261 91499
NUSAT-50 (NANCY ROMAN)  
1 60493U 24149AB  26068.80227738  .00012094  00000+0  42252-3 0  9994
2 60493  97.3817 150.7693 0002523 238.0469 122.0527 15.29713355 86930
